NORAD_CAT_ID,OBJECT_NAME,OBJECT_TYPE,EPOCH,MEAN_MOTION,ECCENTRICITY,INCLINATION,RA_OF_ASC_NODE,ARG_OF_PERICENTER,MEAN_ANOMALY,BSTAR,MEAN_MOTION_DOT,MEAN_MOTION_DDOT,TLE_LINE0,TLE_LINE1,TLE_LINE2,SEMIMAJOR_AXIS,PERIOD,APOGEE,PERIGEE,DECAYED
54188.0,STARLINK-5238,PAYLOAD,2023-12-12 13:05:22,15.08840321,0.0001316,53.2185,67.0715,78.155,281.959,8.2072e-05,1.019e-05,0.0,0 STARLINK-5238,1 54188U 22141AH  23346.54540133  .00001019  00000-0  82072-4 0  9993,2 54188  53.2185  67.0715 0001316  78.1550 281.9590 15.08840321 62481,6917.879,95.438,540.655,538.834,0.0
54188.0,STARLINK-5238,PAYLOAD,2023-12-13 12:56:09,15.08845906,0.0001387,53.2186,62.6137,76.295,283.8197,0.00010205,1.337e-05,0.0,0 STARLINK-5238,1 54188U 22141AH  23347.53899778  .00001337  00000-0  10205-3 0  9996,2 54188  53.2186  62.6137 0001387  76.2950 283.8197 15.08845906 62637,6917.862,95.437,540.687,538.768,0.0
54188.0,STARLINK-5238,PAYLOAD,2023-12-14 11:11:33,15.08842589,0.0002057,53.22,58.4483,57.3428,302.7762,3.736e-05,3.06e-06,0.0,0 STARLINK-5238,1 54188U 22141AH  23348.46636310  .00000306  00000-0  37360-4 0  9997,2 54188  53.2200  58.4483 0002057  57.3428 302.7762 15.08842589 63001,6917.872,95.437,541.16,538.314,0.0
54188.0,STARLINK-5238,PAYLOAD,2023-12-15 11:02:20,15.08838407,0.0001548,53.2197,53.9852,77.5257,282.5909,5.0321e-05,5.13e-06,0.0,0 STARLINK-5238,1 54188U 22141AH  23349.45996142  .00000513  00000-0  50321-4 0  9991,2 54188  53.2197  53.9852 0001548  77.5257 282.5909 15.08838407 62926,6917.885,95.438,540.821,538.679,0.0
54188.0,STARLINK-5238,PAYLOAD,2023-12-16 10:53:07,15.0883901,0.0001566,53.2195,49.5303,102.6832,257.4335,2.3984e-05,9.4e-07,0.0,0 STARLINK-5238,1 54188U 22141AH  23350.45356221  .00000094  00000-0  23984-4 0  9990,2 54188  53.2195  49.5303 0001566 102.6832 257.4335 15.08839010 63303,6917.883,95.438,540.832,538.665,0.0
54188.0,STARLINK-5238,PAYLOAD,2023-12-17 10:43:55,15.08836873,0.0001711,53.22,45.0733,109.9194,250.1983,6.1304e-05,6.88e-06,0.0,0 STARLINK-5238,1 54188U 22141AH  23351.44716469  .00000688  00000-0  61304-4 0  9991,2 54188  53.2200  45.0733 0001711 109.9194 250.1983 15.08836873 63225,6917.89,95.438,540.939,538.571,0.0
54188.0,STARLINK-5238,PAYLOAD,2023-12-17 23:26:59,15.08842287,0.0001659,53.2198,42.6941,109.2402,250.8769,0.00010436,1.373e-05,0.0,0 STARLINK-5238,1 54188U 22141AH  23351.97708107  .00001373  00000-0  10436-3 0  9990,2 54188  53.2198  42.6941 0001659 109.2402 250.8769 15.08842287 63530,6917.873,95.437,540.886,538.591,0.0
54188.0,STARLINK-5238,PAYLOAD,2023-12-18 10:34:41,15.08849538,0.0001713,53.2197,40.6126,111.9059,248.2115,0.00016156,2.285e-05,0.0,0 STARLINK-5238,1 54188U 22141AH  23352.44075410  .00002285  00000-0  16156-3 0  9995,2 54188  53.2197  40.6126 0001713 111.9059 248.2115 15.08849538 63375,6917.851,95.437,540.901,538.531,0.0
54188.0,STARLINK-5238,PAYLOAD,2023-12-19 10:25:29,15.08835351,0.0001493,53.219,36.1502,100.5549,259.5611,4.5261e-05,4.32e-06,0.0,0 STARLINK-5238,1 54188U 22141AH  23353.43436886  .00000432  00000-0  45261-4 0  9995,2 54188  53.2190  36.1502 0001493 100.5549 259.5611 15.08835351 63755,6917.895,95.438,540.792,538.727,0.0
54188.0,STARLINK-5238,PAYLOAD,2023-12-20 10:16:17,15.08837456,0.0001718,53.2196,31.6913,81.1813,278.9373,-2.2103e-05,-6.4e-06,0.0,0 STARLINK-5238,1 54188U 22141AH  23354.42797497 -.00000640  00000-0 -22103-4 0  9996,2 54188  53.2196  31.6913 0001718  81.1813 278.9373 15.08837456 63674,6917.888,95.438,540.942,538.565,0.0
54188.0,STARLINK-5238,PAYLOAD,2023-12-21 10:07:03,15.08849171,0.0002029,53.2194,27.2299,65.5576,294.5628,0.00034181,5.157e-05,0.0,0 STARLINK-5238,1 54188U 22141AH  23355.42156965  .00005157  00000-0  34181-3 0  9990,2 54188  53.2194  27.2299 0002029  65.5576 294.5628 15.08849171 64055,6917.852,95.437,541.121,538.314,0.0
54188.0,STARLINK-5238,PAYLOAD,2023-12-22 08:22:27,15.08842366,0.0001492,53.2184,23.0688,87.24,272.8763,0.00011016,1.466e-05,0.0,0 STARLINK-5238,1 54188U 22141AH  23356.34893359  .00001466  00000-0  11016-3 0  9998,2 54188  53.2184  23.0688 0001492  87.2400 272.8763 15.08842366 64193,6917.873,95.437,540.77,538.706,0.0
54188.0,STARLINK-5238,PAYLOAD,2023-12-23 11:24:00,15.0884811,0.0001595,53.2198,18.005,101.2747,258.8425,4.9174e-05,4.95e-06,0.0,0 STARLINK-5238,1 54188U 22141AH  23357.47500985  .00000495  00000-0  49174-4 0  9991,2 54188  53.2198  18.0050 0001595 101.2747 258.8425 15.08848110 64361,6917.856,95.437,540.824,538.617,0.0
54188.0,STARLINK-5238,PAYLOAD,2023-12-24 01:42:29,15.08838464,0.0001559,53.2197,15.3256,87.6012,272.5158,3.4907e-05,2.68e-06,0.0,0 STARLINK-5238,1 54188U 22141AH  23358.07117642  .00000268  00000-0  34907-4 0  9998,2 54188  53.2197  15.3256 0001559  87.6012 272.5158 15.08838464 64457,6917.885,95.438,540.829,538.672,0.0
54188.0,STARLINK-5238,PAYLOAD,2023-12-24 08:04:02,15.08841446,0.0001549,53.219,14.1451,90.0654,270.0516,0.00015198,2.132e-05,0.0,0 STARLINK-5238,1 54188U 22141AH  23358.33613649  .00002132  00000-0  15198-3 0  9997,2 54188  53.2190  14.1451 0001549  90.0654 270.0516 15.08841446 64267,6917.876,95.437,540.813,538.669,0.0
54188.0,STARLINK-5238,PAYLOAD,2023-12-25 11:05:34,15.08852294,0.000137,53.2179,9.0858,87.6017,272.5132,0.00020803,3.026e-05,0.0,0 STARLINK-5238,1 54188U 22141AH  23359.46221027  .00003026  00000-0  20803-3 0  9999,2 54188  53.2179   9.0858 0001370  87.6017 272.5132 15.08852294 64663,6917.843,95.437,540.656,538.76,0.0
54188.0,STARLINK-5238,PAYLOAD,2023-12-26 01:24:04,15.08830711,0.0001326,53.2192,6.4144,85.8196,274.2947,-5.5265e-05,-1.167e-05,0.0,0 STARLINK-5238,1 54188U 22141AH  23360.05838203 -.00001167  00000-0 -55265-4 0  9993,2 54188  53.2192   6.4144 0001326  85.8196 274.2947 15.08830711 64759,6917.909,95.438,540.691,538.856,0.0
54188.0,STARLINK-5238,PAYLOAD,2023-12-26 06:10:13,15.08837334,0.0001619,53.2188,5.5222,105.108,255.0092,3.8528e-05,3.25e-06,0.0,0 STARLINK-5238,1 54188U 22141AH  23360.25709930  .00000325  00000-0  38528-4 0  9995,2 54188  53.2188   5.5222 0001619 105.1080 255.0092 15.08837334 64558,6917.889,95.438,540.874,538.634,0.0
54188.0,STARLINK-5238,PAYLOAD,2023-12-27 09:11:45,15.0886185,0.0001386,53.2186,0.467,106.7595,253.355,0.00034345,5.186e-05,0.0,0 STARLINK-5238,1 54188U 22141AH  23361.38316867  .00005186  00000-0  34345-3 0  9995,2 54188  53.2186   0.4670 0001386 106.7595 253.3550 15.08861850 64950,6917.814,95.436,540.637,538.72,0.0
54188.0,STARLINK-5238,PAYLOAD,2023-12-28 09:02:34,15.08839576,0.0001535,53.2183,356.0023,99.0278,261.0888,0.00014155,1.965e-05,0.0,0 STARLINK-5238,1 54188U 22141AH  23362.37678259  .00001965  00000-0  14155-3 0  9999,2 54188  53.2183 356.0023 0001535  99.0278 261.0888 15.08839576 65105,6917.882,95.438,540.809,538.685,0.0
54188.0,STARLINK-5238,PAYLOAD,2023-12-29 04:07:10,15.08858104,0.0002522,53.2184,352.4336,144.4368,215.6792,-0.00033706,-5.652e-05,0.0,0 STARLINK-5238,1 54188U 22141AH  23363.17165118 -.00005652  00000-0 -33706-3 0  9995,2 54188  53.2184 352.4336 0002522 144.4368 215.6792 15.08858104 65225,6917.825,95.436,541.435,537.945,0.0
54188.0,STARLINK-5238,PAYLOAD,2023-12-29 05:42:34,15.08845517,0.0001652,53.2189,352.1339,86.6739,273.4442,0.00010056,1.313e-05,0.0,0 STARLINK-5238,1 54188U 22141AH  23363.23790151  .00001313  00000-0  10056-3 0  9994,2 54188  53.2189 352.1339 0001652  86.6739 273.4442 15.08845517 65231,6917.864,95.437,540.871,538.586,0.0
54188.0,STARLINK-5238,PAYLOAD,2023-12-30 03:57:58,15.0884127,0.0001585,53.2187,347.9699,89.6147,270.5027,0.00013445,1.852e-05,0.0,0 STARLINK-5238,1 54188U 22141AH  23364.16526457  .00001852  00000-0  13445-3 0  9996,2 54188  53.2187 347.9699 0001585  89.6147 270.5027 15.08841270 65375,6917.877,95.437,540.838,538.645,0.0
54188.0,STARLINK-5238,PAYLOAD,2023-12-30 08:44:08,15.08844368,0.0001571,53.2185,347.0797,97.8934,262.2236,0.00016831,2.392e-05,0.0,0 STARLINK-5238,1 54188U 22141AH  23364.36398287  .00002392  00000-0  16831-3 0  9998,2 54188  53.2185 347.0797 0001571  97.8934 262.2236 15.08844368 65172,6917.867,95.437,540.819,538.645,0.0
54188.0,STARLINK-5238,PAYLOAD,2023-12-31 08:34:55,15.08843309,0.0001477,53.2174,342.6182,109.5852,250.53,5.0782e-05,5.2e-06,0.0,0 STARLINK-5238,1 54188U 22141AH  23365.35758237  .00000520  00000-0  50782-4 0  9998,2 54188  53.2174 342.6182 0001477 109.5852 250.5300 15.08843309 65552,6917.87,95.437,540.757,538.714,0.0
54188.0,STARLINK-5238,PAYLOAD,2024-01-01 02:04:09,15.08836428,0.0001448,53.2171,339.3464,106.6562,253.4589,6.8331e-06,-1.79e-06,0.0,0 STARLINK-5238,1 54188U 22141AH  24001.08622674 -.00000179  00000-0  68331-5 0  9992,2 54188  53.2171 339.3464 0001448 106.6562 253.4589 15.08836428 65666,6917.891,95.438,540.758,538.755,0.0
54188.0,STARLINK-5238,PAYLOAD,2024-01-01 05:14:56,15.0883897,0.0001445,53.2182,338.7516,104.8482,255.267,4.8651e-05,4.86e-06,0.0,0 STARLINK-5238,1 54188U 22141AH  24001.21870708  .00000486  00000-0  48651-4 0  9992,2 54188  53.2182 338.7516 0001445 104.8482 255.2670 15.08838970 65459,6917.884,95.438,540.748,538.749,0.0
54188.0,STARLINK-5238,PAYLOAD,2024-01-01 22:44:10,15.0884173,0.000136,53.218,335.4813,97.7311,262.3836,9.0846e-05,1.158e-05,0.0,0 STARLINK-5238,1 54188U 22141AH  24001.94734477  .00001158  00000-0  90846-4 0  9994,2 54188  53.2180 335.4813 0001360  97.7311 262.3836 15.08841730 65561,6917.875,95.437,540.681,538.799,0.0
54188.0,STARLINK-5238,PAYLOAD,2024-01-02 03:30:19,15.08849735,0.0001414,53.2177,334.59,96.2496,263.8658,0.00015492,2.179e-05,0.0,0 STARLINK-5238,1 54188U 22141AH  24002.14605824  .00002179  00000-0  15492-3 0  9997,2 54188  53.2177 334.5900 0001414  96.2496 263.8658 15.08849735 65822,6917.851,95.437,540.694,538.737,0.0
54188.0,STARLINK-5238,PAYLOAD,2024-01-02 08:16:28,15.08851842,0.0001394,53.2178,333.7003,102.2718,257.843,0.00019876,2.878e-05,0.0,0 STARLINK-5238,1 54188U 22141AH  24002.34477642  .00002878  00000-0  19876-3 0  9990,2 54188  53.2178 333.7003 0001394 102.2718 257.8430 15.08851842 65621,6917.844,95.437,540.674,538.745,0.0
